{"type": "FeatureCollection", "features": [{"type": "Feature", "properties": {"norad_id": 37846, "name": "GSAT0101 (GALILEO-PFM)", "group": "galileo", "lat": -48.08581557958946, "lon": -147.02596156604562, "alt_km": 23224.941811463992, "timestamp": "2025-12-16T19:34:24.529995+00:00", "meta": {"OBJECT_NAME": "GSAT0101 (GALILEO-PFM)", "OBJECT_ID": "2011-060A", "EPOCH": "2025-12-15T20:00:41.819904", "MEAN_MOTION": 1.70475823, "ECCENTRICITY": 0.00030775, "INCLINATION": 57.052, "RA_OF_ASC_NODE": 346.7358, "ARG_OF_PERICENTER": 316.7426, "MEAN_ANOMALY": 43.2514, "EPHEMERIS_TYPE": 0, "CLASSIFICATION_TYPE": "U", "NORAD_CAT_ID": 37846, "ELEMENT_SET_NO": 999, "REV_AT_EPOCH": 8799, "BSTAR": 0, "MEAN_MOTION_DOT": -8.2e-07, "MEAN_MOTION_DDOT": 0}, "tle": {"line1": "1 37846U 11060A   25349.83381736 -.00000082  00000+0  00000+0 0  9997", "line2": "2 37846  57.0520 346.7358 0003077 316.7426  43.2514  1.70475823 87990"}}, "geometry": {"type": "Point", "coordinates": [-147.02596156604562, -48.08581557958946]}}, {"type": "Feature", "properties": {"norad_id": 37847, "name": "GSAT0102 (GALILEO-FM2)", "group": "galileo", "lat": -52.948059151830535, "lon": -72.5136199711176, "alt_km": 23213.989906396193, "timestamp": "2025-12-16T19:34:24.530019+00:00", "meta": {"OBJECT_NAME": "GSAT0102 (GALILEO-FM2)", "OBJECT_ID": "2011-060B", "EPOCH": "2025-12-15T11:17:12.789024", "MEAN_MOTION": 1.70476038, "ECCENTRICITY": 0.0005041, "INCLINATION": 57.0528, "RA_OF_ASC_NODE": 346.7461, "ARG_OF_PERICENTER": 310.8731, "MEAN_ANOMALY": 231.4829, "EPHEMERIS_TYPE": 0, "CLASSIFICATION_TYPE": "U", "NORAD_CAT_ID": 37847, "ELEMENT_SET_NO": 999, "REV_AT_EPOCH": 8799, "BSTAR": 0, "MEAN_MOTION_DOT": -8.3e-07, "MEAN_MOTION_DDOT": 0}, "tle": {"line1": "1 37847U 11060B   25349.47028691 -.00000083  00000+0  00000+0 0  9997", "line2": "2 37847  57.0528 346.7461 0005041 310.8731 231.4829  1.70476038 87990"}}, "geometry": {"type": "Point", "coordinates": [-72.5136199711176, -52.948059151830535]}}, {"type": "Feature", "properties": {"norad_id": 38857, "name": "GSAT0103 (GALILEO-FM3)", "group": "galileo", "lat": -30.487870387715862, "lon": -49.782783386201935, "alt_km": 23221.151102828233, "timestamp": "2025-12-16T19:34:24.530034+00:00", "meta": {"OBJECT_NAME": "GSAT0103 (GALILEO-FM3)", "OBJECT_ID": "2012-055A", "EPOCH": "2025-12-13T12:39:44.093088", "MEAN_MOTION": 1.70473367, "ECCENTRICITY": 0.00026827, "INCLINATION": 55.6929, "RA_OF_ASC_NODE": 106.6448, "ARG_OF_PERICENTER": 268.8486, "MEAN_ANOMALY": 91.0883, "EPHEMERIS_TYPE": 0, "CLASSIFICATION_TYPE": "U", "NORAD_CAT_ID": 38857, "ELEMENT_SET_NO": 999, "REV_AT_EPOCH": 8184, "BSTAR": 0, "MEAN_MOTION_DOT": 1e-08, "MEAN_MOTION_DDOT": 0}, "tle": {"line1": "1 38857U 12055A   25347.52759367  .00000001  00000+0  00000+0 0  9998", "line2": "2 38857  55.6929 106.6448 0002682 268.8486  91.0883  1.70473367 81846"}}, "geometry": {"type": "Point", "coordinates": [-49.782783386201935, -30.487870387715862]}}, {"type": "Feature", "properties": {"norad_id": 40128, "name": "GSAT0201 (GALILEO 5)", "group": "galileo", "lat": 41.490709220028904, "lon": -29.103590676141703, "alt_km": 22553.144989954795, "timestamp": "2025-12-16T19:34:24.530048+00:00", "meta": {"OBJECT_NAME": "GSAT0201 (GALILEO 5)", "OBJECT_ID": "2014-050A", "EPOCH": "2025-12-14T00:08:14.916480", "MEAN_MOTION": 1.85519648, "ECCENTRICITY": 0.16480052, "INCLINATION": 49.0753, "RA_OF_ASC_NODE": 281.012, "ARG_OF_PERICENTER": 172.3262, "MEAN_ANOMALY": 190.5827, "EPHEMERIS_TYPE": 0, "CLASSIFICATION_TYPE": "U", "NORAD_CAT_ID": 40128, "ELEMENT_SET_NO": 999, "REV_AT_EPOCH": 7488, "BSTAR": 0, "MEAN_MOTION_DOT": -9.9e-07, "MEAN_MOTION_DDOT": 0}, "tle": {"line1": "1 40128U 14050A   25348.00572820 -.00000099  00000+0  00000+0 0  9998", "line2": "2 40128  49.0753 281.0120 1648005 172.3262 190.5827  1.85519648 74882"}}, "geometry": {"type": "Point", "coordinates": [-29.103590676141703, 41.490709220028904]}}, {"type": "Feature", "properties": {"norad_id": 40129, "name": "GSAT0202 (GALILEO 6)", "group": "galileo", "lat": -46.48865783887532, "lon": -145.83186887376246, "alt_km": 22742.459270938823, "timestamp": "2025-12-16T19:34:24.530060+00:00", "meta": {"OBJECT_NAME": "GSAT0202 (GALILEO 6)", "OBJECT_ID": "2014-050B", "EPOCH": "2025-12-14T06:17:14.023104", "MEAN_MOTION": 1.85520414, "ECCENTRICITY": 0.16487132, "INCLINATION": 49.0906, "RA_OF_ASC_NODE": 280.0852, "ARG_OF_PERICENTER": 173.0839, "MEAN_ANOMALY": 189.5459, "EPHEMERIS_TYPE": 0, "CLASSIFICATION_TYPE": "U", "NORAD_CAT_ID": 40129, "ELEMENT_SET_NO": 999, "REV_AT_EPOCH": 7705, "BSTAR": 0, "MEAN_MOTION_DOT": -9.7e-07, "MEAN_MOTION_DDOT": 0}, "tle": {"line1": "1 40129U 14050B   25348.26196786 -.00000097  00000+0  00000+0 0  9998", "line2": "2 40129  49.0906 280.0852 1648713 173.0839 189.5459  1.85520414 77052"}}, "geometry": {"type": "Point", "coordinates": [-145.83186887376246, -46.48865783887532]}}, {"type": "Feature", "properties": {"norad_id": 40544, "name": "GSAT0203 (GALILEO 7)", "group": "galileo", "lat": 15.573130692062595, "lon": -2.93542539000697, "alt_km": 23225.527460976835, "timestamp": "2025-12-16T19:34:24.530072+00:00", "meta": {"OBJECT_NAME": "GSAT0203 (GALILEO 7)", "OBJECT_ID": "2015-017A", "EPOCH": "2025-12-14T10:31:47.473824", "MEAN_MOTION": 1.70475994, "ECCENTRICITY": 0.00064885, "INCLINATION": 56.8458, "RA_OF_ASC_NODE": 346.6335, "ARG_OF_PERICENTER": 272.6107, "MEAN_ANOMALY": 87.3336, "EPHEMERIS_TYPE": 0, "CLASSIFICATION_TYPE": "U", "NORAD_CAT_ID": 40544, "ELEMENT_SET_NO": 999, "REV_AT_EPOCH": 6605, "BSTAR": 0, "MEAN_MOTION_DOT": -8.5e-07, "MEAN_MOTION_DDOT": 0}, "tle": {"line1": "1 40544U 15017A   25348.43874391 -.00000085  00000+0  00000+0 0  9994", "line2": "2 40544  56.8458 346.6335 0006488 272.6107  87.3336  1.70475994 66059"}}, "geometry": {"type": "Point", "coordinates": [-2.93542539000697, 15.573130692062595]}}, {"type": "Feature", "properties": {"norad_id": 40545, "name": "GSAT0204 (GALILEO 8)", "group": "galileo", "lat": -33.944253043514614, "lon": -167.31644788288358, "alt_km": 23212.732532401726, "timestamp": "2025-12-16T19:34:24.530083+00:00", "meta": {"OBJECT_NAME": "GSAT0204 (GALILEO 8)", "OBJECT_ID": "2015-017B", "EPOCH": "2025-12-14T16:39:40.338432", "MEAN_MOTION": 1.70475755, "ECCENTRICITY": 0.0006191, "INCLINATION": 56.8531, "RA_OF_ASC_NODE": 346.6443, "ARG_OF_PERICENTER": 264.523, "MEAN_ANOMALY": 95.425, "EPHEMERIS_TYPE": 0, "CLASSIFICATION_TYPE": "U", "NORAD_CAT_ID": 40545, "ELEMENT_SET_NO": 999, "REV_AT_EPOCH": 2910, "BSTAR": 0, "MEAN_MOTION_DOT": -8.5e-07, "MEAN_MOTION_DDOT": 0}, "tle": {"line1": "1 40545U 15017B   25348.69421688 -.00000085  00000+0  00000+0 0  9990", "line2": "2 40545  56.8531 346.6443 0006191 264.5230  95.4250  1.70475755 29105"}}, "geometry": {"type": "Point", "coordinates": [-167.31644788288358, -33.944253043514614]}}, {"type": "Feature", "properties": {"norad_id": 40889, "name": "GSAT0205 (GALILEO 9)", "group": "galileo", "lat": 3.251690734545693, "lon": -131.06579738911788, "alt_km": 23207.650067141396, "timestamp": "2025-12-16T19:34:24.530094+00:00", "meta": {"OBJECT_NAME": "GSAT0205 (GALILEO 9)", "OBJECT_ID": "2015-045A", "EPOCH": "2025-12-13T06:56:57.536448", "MEAN_MOTION": 1.70473165, "ECCENTRICITY": 0.00060191, "INCLINATION": 55.0031, "RA_OF_ASC_NODE": 226.743, "ARG_OF_PERICENTER": 39.8542, "MEAN_ANOMALY": 320.2702, "EPHEMERIS_TYPE": 0, "CLASSIFICATION_TYPE": "U", "NORAD_CAT_ID": 40889, "ELEMENT_SET_NO": 999, "REV_AT_EPOCH": 6384, "BSTAR": 0, "MEAN_MOTION_DOT": 2.2e-07, "MEAN_MOTION_DDOT": 0}, "tle": {"line1": "1 40889U 15045A   25347.28955482  .00000022  00000+0  00000+0 0  9990", "line2": "2 40889  55.0031 226.7430 0006019  39.8542 320.2702  1.70473165 63847"}}, "geometry": {"type": "Point", "coordinates": [-131.06579738911788, 3.251690734545693]}}, {"type": "Feature", "properties": {"norad_id": 40890, "name": "GSAT0206 (GALILEO 10)", "group": "galileo", "lat": -37.92567524180125, "lon": 79.7038501424834, "alt_km": 23238.47741448484, "timestamp": "2025-12-16T19:34:24.530106+00:00", "meta": {"OBJECT_NAME": "GSAT0206 (GALILEO 10)", "OBJECT_ID": "2015-045B", "EPOCH": "2025-12-14T16:24:04.185792", "MEAN_MOTION": 1.70473242, "ECCENTRICITY": 0.00039786, "INCLINATION": 55.0018, "RA_OF_ASC_NODE": 226.6995, "ARG_OF_PERICENTER": 38.8814, "MEAN_ANOMALY": 321.2332, "EPHEMERIS_TYPE": 0, "CLASSIFICATION_TYPE": "U", "NORAD_CAT_ID": 40890, "ELEMENT_SET_NO": 999, "REV_AT_EPOCH": 6389, "BSTAR": 0, "MEAN_MOTION_DOT": 3.4e-07, "MEAN_MOTION_DDOT": 0}, "tle": {"line1": "1 40890U 15045B   25348.68338178  .00000034  00000+0  00000+0 0  9997", "line2": "2 40890  55.0018 226.6995 0003978  38.8814 321.2332  1.70473242 63892"}}, "geometry": {"type": "Point", "coordinates": [79.7038501424834, -37.92567524180125]}}, {"type": "Feature", "properties": {"norad_id": 41174, "name": "GSAT0209 (GALILEO 12)", "group": "galileo", "lat": 42.30105950376755, "lon": -112.07039065075055, "alt_km": 23222.208406445727, "timestamp": "2025-12-16T19:34:24.530117+00:00", "meta": {"OBJECT_NAME": "GSAT0209 (GALILEO 12)", "OBJECT_ID": "2015-079A", "EPOCH": "2025-12-13T16:16:46.046208", "MEAN_MOTION": 1.70474514, "ECCENTRICITY": 0.00024314, "INCLINATION": 55.7133, "RA_OF_ASC_NODE": 106.3552, "ARG_OF_PERICENTER": 349.5598, "MEAN_ANOMALY": 10.4024, "EPHEMERIS_TYPE": 0, "CLASSIFICATION_TYPE": "U", "NORAD_CAT_ID": 41174, "ELEMENT_SET_NO": 999, "REV_AT_EPOCH": 6161, "BSTAR": 0, "MEAN_MOTION_DOT": -1e-08, "MEAN_MOTION_DDOT": 0}, "tle": {"line1": "1 41174U 15079A   25347.67831072 -.00000001  00000+0  00000+0 0  9994", "line2": "2 41174  55.7133 106.3552 0002431 349.5598  10.4024  1.70474514 61616"}}, "geometry": {"type": "Point", "coordinates": [-112.07039065075055, 42.30105950376755]}}]}